OBJECT_NAME,OBJECT_ID,EPOCH,MEAN_MOTION,ECCENTRICITY,INCLINATION,RA_OF_ASC_NODE,ARG_OF_PERICENTER,MEAN_ANOMALY,EPHEMERIS_TYPE,CLASSIFICATION_TYPE,NORAD_CAT_ID,ELEMENT_SET_NO,REV_AT_EPOCH,BSTAR,MEAN_MOTION_DOT,MEAN_MOTION_DDOT
TANSAT,2016-081A,2026-06-30T19:38:38.779296,14.59960679,.0019102,98.5359,182.4788,267.4923,92.4089,0,U,41898,999,50661,.22841E-4,.59E-6,0
JILIN-1 03,2017-002B,2026-06-30T18:51:21.792096,15.41899954,.0007881,97.1941,188.6805,117.0714,243.1339,0,U,41914,999,52395,.30976E-3,.13095E-3,0
CARTOSAT-2D,2017-008A,2026-06-30T20:35:40.377408,15.19303742,.0005036,97.4101,240.9087,179.6182,180.5058,0,U,41948,999,51965,.10683E-3,.2188E-4,0
CARTOSAT-2E,2017-036C,2026-06-30T19:26:26.198880,15.19267694,.0002265,97.4271,241.3875,248.1975,111.9019,0,U,42767,999,50021,.16914E-3,.3499E-4,0
IRIDIUM 113,2017-039A,2026-06-30T18:36:39.233376,14.34216928,.0002079,86.3980,316.4986,90.0001,270.1433,0,U,42803,999,47313,-.26049E-4,-.53E-6,0
NORSAT 2,2017-042D,2026-06-30T10:32:34.040832,15.22172520,.00094559,97.4038,354.6713,13.2481,346.9002,0,U,42828,999,48975,.42467892E-3,.9692E-4,0
TECHNOSAT,2017-042E,2026-06-30T17:54:26.577216,15.05036273,.001885,97.4293,338.8895,51.4773,308.8140,0,U,42829,999,48874,.17006E-3,.2365E-4,0
FLYING LAPTOP,2017-042G,2026-06-30T20:23:57.062400,15.01231687,.0019957,97.4744,336.8616,77.9403,282.4057,0,U,42831,999,48850,.23574E-3,.2982E-4,0
WNISAT 1R,2017-042L,2026-06-30T16:25:20.623008,15.01816767,.0012028,97.4836,337.3242,107.2660,252.9882,0,U,42835,999,48853,.16711E-3,.2124E-4,0
LEMUR-2-GREENBERG,2017-042N,2026-06-30T19:23:07.584288,15.31737029,.0007401,97.3816,2.3730,321.1948,38.8761,0,U,42837,999,49047,.53564E-3,.16367E-3,0
LEMUR-2-FURIAUS,2017-042R,2026-06-30T11:37:07.532544,15.30677153,.00071961,97.3765,359.9757,25.6728,334.4868,0,U,42840,999,49024,.520479E-3,.15383E-3,0
CORVUS BC2,2017-042X,2026-06-30T09:56:15.662688,15.06373686,.00143013,97.4068,342.2504,69.6054,290.6709,0,U,42846,999,48905,.20104795E-3,.2906E-4,0
CORVUS BC1,2017-042Y,2026-06-30T09:46:24.158784,15.06538934,.00127266,97.4101,343.0664,48.0535,312.1776,0,U,42847,999,48908,.24420698E-3,.3558E-4,0
VRSS-2,2017-060A,2026-06-30T19:59:32.985888,14.81214340,.0018489,97.6506,218.9447,57.8928,302.4077,0,U,42954,999,47047,.27463E-4,.164E-5,0
MOHAMMED VI-A,2017-070A,2026-06-30T19:51:03.524832,14.77085478,.000118,97.9561,253.9700,82.1674,277.9670,0,U,43005,999,46599,.90895E-4,.591E-5,0
FENGYUN 3D,2017-072A,2026-06-30T21:21:30.002112,14.19741590,.0002189,99.0129,156.5600,40.0950,320.0387,0,U,43010,999,44693,-.67532E-4,-.189E-5,0
NOAA 20 (JPSS-1),2017-073A,2026-06-30T19:35:58.871904,14.19514125,.0000802,98.7773,121.1582,133.5608,226.5634,0,U,43013,999,44640,.41891E-4,.44E-6,0
MAKERSAT 0,2017-073D,2026-06-30T15:10:48.592704,15.32524682,.010488,97.4604,64.2588,224.3337,134.9472,0,U,43016,999,46852,.45771E-3,.17054E-3,0
RADFXSAT (FOX-1B),2017-073E,2026-06-30T13:39:22.965120,15.12893104,.0148328,97.4686,48.5107,282.5576,75.9100,0,U,43017,999,46741,.29341E-3,.6695E-4,0
JILIN-1 04,2017-074A,2026-06-30T18:33:31.263264,15.42789140,.0004961,97.4874,291.7510,137.8011,222.3618,0,U,43022,999,47636,.30933E-3,.13459E-3,0
JILIN-1 05,2017-074B,2026-06-30T19:40:44.976000,15.34086496,.0005577,97.4879,288.1601,166.3811,193.7583,0,U,43023,999,47609,.29182E-3,.9551E-4,0
JILIN-1 06,2017-074C,2026-06-30T19:02:29.009184,15.33853909,.0006912,97.4806,285.1253,179.4839,180.6412,0,U,43024,999,47592,.21257E-3,.6883E-4,0
IRIDIUM 116,2017-083C,2026-06-30T19:40:35.206752,14.34217427,.0002133,86.3972,316.3016,101.7327,258.4108,0,U,43072,999,44612,-.66898E-5,.1E-7,0
IRIDIUM 130,2017-083D,2026-06-30T18:54:55.087776,14.34217631,.0002043,86.3984,316.5912,97.8733,262.2695,0,U,43073,999,44606,.20087E-4,.76E-6,0
LKW-2,2017-084A,2026-06-30T20:39:18.336960,15.26512120,.0002534,97.1183,221.0178,146.8028,213.3370,0,U,43080,999,47377,.20613E-3,.5314E-4,0
SUPERVIEW-1 03,2018-002A,2026-06-30T19:34:33.850848,15.39738828,.0047491,97.3139,266.6353,131.4269,229.1073,0,U,43099,999,47046,.45582E-3,.18694E-3,0
CARTOSAT-2F,2018-004A,2026-06-30T20:12:56.039328,15.19167929,.0001408,97.4781,241.3441,166.8500,193.2771,0,U,43111,999,46940,.18989E-3,.3924E-4,0
LKW-3,2018-006A,2026-06-30T20:53:30.352416,15.35499203,.0001783,97.6615,342.9819,246.0514,114.0542,0,U,43146,999,47081,.29424E-3,.10067E-3,0
