TANSAT                  
1 41898U 16081A   26181.81850439  .00000059  00000+0  22841-4 0  9996
2 41898  98.5359 182.4788 0019102 267.4923  92.4089 14.59960679506611
JILIN-1 03              
1 41914U 17002B   26181.78566889  .00013095  00000+0  30976-3 0  9999
2 41914  97.1941 188.6805 0007881 117.0714 243.1339 15.41899954523957
CARTOSAT-2D             
1 41948U 17008A   26181.85810622  .00002188  00000+0  10683-3 0  9991
2 41948  97.4101 240.9087 0005036 179.6182 180.5058 15.19303742519656
CARTOSAT-2E             
1 42767U 17036C   26181.81002545  .00003499  00000+0  16914-3 0  9994
2 42767  97.4271 241.3875 0002265 248.1975 111.9019 15.19267694500219
IRIDIUM 113             
1 42803U 17039A   26181.77545409 -.00000053  00000+0 -26049-4 0  9990
2 42803  86.3980 316.4986 0002079  90.0001 270.1433 14.34216928473136
NORSAT 2                
1 42828U 17042D   26181.43928288  .00009692  00000+0  42468-3 0  9992
2 42828  97.4038 354.6713 0009455  13.2481 346.9002 15.22172520489752
TECHNOSAT               
1 42829U 17042E   26181.74614094  .00002365  00000+0  17006-3 0  9994
2 42829  97.4293 338.8895 0018850  51.4773 308.8140 15.05036273488741
FLYING LAPTOP           
1 42831U 17042G   26181.84996600  .00002982  00000+0  23574-3 0  9996
2 42831  97.4744 336.8616 0019957  77.9403 282.4057 15.01231687488506
WNISAT 1R               
1 42835U 17042L   26181.68426647  .00002124  00000+0  16711-3 0  9994
2 42835  97.4836 337.3242 0012028 107.2660 252.9882 15.01816767488536
LEMUR-2-GREENBERG       
1 42837U 17042N   26181.80772667  .00016367  00000+0  53564-3 0  9997
2 42837  97.3816   2.3730 0007401 321.1948  38.8761 15.31737029490470
LEMUR-2-FURIAUS         
1 42840U 17042R   26181.48411496  .00015383  00000+0  52048-3 0  9998
2 42840  97.3765 359.9757 0007196  25.6728 334.4868 15.30677153490248
CORVUS BC2              
1 42846U 17042X   26181.41407017  .00002906  00000+0  20105-3 0  9997
2 42846  97.4068 342.2504 0014301  69.6054 290.6709 15.06373686489053
CORVUS BC1              
1 42847U 17042Y   26181.40722406  .00003558  00000+0  24421-3 0  9998
2 42847  97.4101 343.0664 0012726  48.0535 312.1776 15.06538934489088
VRSS-2                  
1 42954U 17060A   26181.83302067  .00000164  00000+0  27463-4 0  9991
2 42954  97.6506 218.9447 0018489  57.8928 302.4077 14.81214340470476
MOHAMMED VI-A           
1 43005U 17070A   26181.82712413  .00000591  00000+0  90895-4 0  9992
2 43005  97.9561 253.9700 0001180  82.1674 277.9670 14.77085478465997
FENGYUN 3D              
1 43010U 17072A   26181.88993058 -.00000189  00000+0 -67532-4 0  9999
2 43010  99.0129 156.5600 0002189  40.0950 320.0387 14.19741590446931
NOAA 20 (JPSS-1)        
1 43013U 17073A   26181.81665361  .00000044  00000+0  41891-4 0  9997
2 43013  98.7773 121.1582 0000802 133.5608 226.5634 14.19514125446409
MAKERSAT 0              
1 43016U 17073D   26181.63250686  .00017054  00000+0  45771-3 0  9999
2 43016  97.4604  64.2588 0104880 224.3337 134.9472 15.32524682468527
RADFXSAT (FOX-1B)       
1 43017U 17073E   26181.56901580  .00006695  00000+0  29341-3 0  9992
2 43017  97.4686  48.5107 0148328 282.5576  75.9100 15.12893104467411
JILIN-1 04              
1 43022U 17074A   26181.77327851  .00013459  00000+0  30933-3 0  9990
2 43022  97.4874 291.7510 0004961 137.8011 222.3618 15.42789140476369
JILIN-1 05              
1 43023U 17074B   26181.81996500  .00009551  00000+0  29182-3 0  9991
2 43023  97.4879 288.1601 0005577 166.3811 193.7583 15.34086496476092
JILIN-1 06              
1 43024U 17074C   26181.79339131  .00006883  00000+0  21257-3 0  9990
2 43024  97.4806 285.1253 0006912 179.4839 180.6412 15.33853909475929
IRIDIUM 116             
1 43072U 17083C   26181.81985193  .00000001  00000+0 -66898-5 0  9990
2 43072  86.3972 316.3016 0002133 101.7327 258.4108 14.34217427446123
IRIDIUM 130             
1 43073U 17083D   26181.78813759  .00000076  00000+0  20087-4 0  9995
2 43073  86.3984 316.5912 0002043  97.8733 262.2695 14.34217631446064
LKW-2                   
1 43080U 17084A   26181.86062890  .00005314  00000+0  20613-3 0  9999
2 43080  97.1183 221.0178 0002534 146.8028 213.3370 15.26512120473772
SUPERVIEW-1 03          
1 43099U 18002A   26181.81566957  .00018694  00000+0  45582-3 0  9995
2 43099  97.3139 266.6353 0047491 131.4269 229.1073 15.39738828470460
CARTOSAT-2F             
1 43111U 18004A   26181.84231527  .00003924  00000+0  18989-3 0  9998
2 43111  97.4781 241.3441 0001408 166.8500 193.2771 15.19167929469409
LKW-3                   
1 43146U 18006A   26181.87049019  .00010067  00000+0  29424-3 0  9996
2 43146  97.6615 342.9819 0001783 246.0514 114.0542 15.35499203470819
